STARLINK-4119           
1 53026U 22076AS  22209.91667824 -.00004148  00000+0 -25198-4 0  9998
2 53026  53.2182 273.8033 0002184  30.1381 306.6486 15.73148355  1305
STARLINK-4158           
1 53027U 22076AT  22209.91667824 -.00025639  00000+0 -17889-3 0  9994
2 53027  53.2183 273.7956 0001798  39.4101 302.0864 15.73188970  1309
STARLINK-4161           
1 53028U 22076AU  22210.00001157  .00065998  00000+0  47170-3 0  9994
2 53028  53.2182 273.3863 0001678  33.3909  57.9800 15.73163399  3876
STARLINK-4143           
1 53029U 22076AV  22210.00001157 -.00020865  00000+0 -14467-3 0  9994
2 53029  53.2182 273.3817 0002040  29.1379  65.1902 15.73187241  3870
STARLINK-4160           
1 53030U 22076AW  22210.00001157 -.00011453  00000+0 -77286-4 0  9998
2 53030  53.2180 273.3832 0001610  36.7278  55.8530 15.73202090  3874
STARLINK-4137           
1 53031U 22076AX  22210.00001157 -.00002946  00000+0 -16595-4 0  9992
2 53031  53.2181 273.3768 0001810  35.4245  60.6665 15.73175865  3878
STARLINK-4115           
1 53032U 22076AY  22210.00001157  .00041096  00000+0  29594-3 0  9992
2 53032  53.2175 273.3808 0001992  20.7161  72.4194 15.73187542  3875
STARLINK-4167           
1 53033U 22076AZ  22209.91667824  .00016794  00000+0  12387-3 0  9999
2 53033  53.2185 273.7929 0001769  31.0349 312.2263 15.73193482  1308
STARLINK-4151           
1 53034U 22076BA  22210.00001157  .00066483  00000+0  47507-3 0  9995
2 53034  53.2185 273.3811 0002081  24.7448  70.1711 15.73164561  3869
STARLINK-4157           
1 53035U 22076BB  22210.00001157  .00068174  00000+0  48696-3 0  9995
2 53035  53.2183 273.3776 0002048  25.1055  71.6580 15.73163735  3862
STARLINK-4155           
1 53036U 22076BC  22210.00001157  .00066001  00000+0  47185-3 0  9995
2 53036  53.2178 273.3740 0001739  31.9344  65.4012 15.73156673  3864
STARLINK-4153           
1 53037U 22076BD  22210.00001157  .00066494  00000+0  47528-3 0  9993
2 53037  53.2181 273.3741 0001649  24.1723  73.7478 15.73158687  3860
STARLINK-4156           
1 53038U 22076BE  22210.00001157  .00036385  00000+0  26254-3 0  9993
2 53038  53.2178 273.3715 0001835  20.8773  77.6340 15.73199598  3860
STARLINK-4362           
1 53043U 22077A   22209.91667824 -.01393942  00000+0 -18805-1 0  9996
2 53043  97.6554  29.0916 0001657  71.8214 247.8049 15.60529884  1308
STARLINK-4349           
1 53044U 22077B   22209.91667824 -.01390242  00000+0 -22100-1 0  9990
2 53044  97.6555  29.0928 0001874  65.7802 192.3188 15.56178987  3397
STARLINK-4350           
1 53045U 22077C   22209.91667824 -.01390433  00000+0 -22097-1 0  9998
2 53045  97.6555  29.0923 0001809  74.5211 184.3131 15.56187349  3394
STARLINK-4331           
1 53046U 22077D   22209.91667824 -.01390641  00000+0 -22094-1 0  9997
2 53046  97.6555  29.0916 0001782  80.9602 178.6093 15.56195716  3392
STARLINK-4352           
1 53047U 22077E   22209.91667824 -.01390450  00000+0 -22077-1 0  9997
2 53047  97.6555  29.0914 0001807  73.8452 187.1944 15.56212093  3391
STARLINK-4355           
1 53048U 22077F   22209.91667824 -.01390226  00000+0 -22079-1 0  9991
2 53048  97.6555  29.0919 0001924  60.4792 199.8254 15.56203735  3393
STARLINK-4345           
1 53049U 22077G   22209.91667824 -.01390294  00000+0 -22053-1 0  9999
2 53049  97.6555  29.0896 0001936  58.8653 204.3788 15.56236778  1304
STARLINK-4343           
1 53050U 22077H   22209.91667824 -.01390437  00000+0 -22070-1 0  9999
2 53050  97.6555  29.0906 0001807  73.5409 188.2336 15.56220346  3392
STARLINK-4336           
1 53051U 22077J   22209.91667824 -.01390443  00000+0 -22043-1 0  9997
2 53051  97.6555  29.0893 0001813  71.2775 193.4360 15.56253333  3393
STARLINK-4341           
1 53052U 22077K   22209.91667824 -.01390296  00000+0 -22060-1 0  9993
2 53052  97.6555  29.0900 0001912  60.9126 201.5968 15.56228519  3391
STARLINK-4337           
1 53053U 22077L   22209.91667824 -.01390423  00000+0 -22029-1 0  9991
2 53053  97.6555  29.0890 0001831  68.1268 198.0556 15.56269823  3393
STARLINK-4339           
1 53054U 22077M   22209.91667824 -.01390456  00000+0 -22050-1 0  9992
2 53054  97.6555  29.0897 0001813  71.5900 192.3889 15.56245085  3392
STARLINK-4338           
1 53055U 22077N   22209.91667824 -.01390457  00000+0 -22016-1 0  9996
2 53055  97.6555  29.0878 0001841  66.4332 201.2178 15.56286331  3395
STARLINK-4314           
1 53056U 22077P   22209.91667824 -.01390483  00000+0 -22037-1 0  9999
2 53056  97.6555  29.0895 0001804  72.4346 193.0134 15.56261596  3392
STARLINK-4252           
1 53057U 22077Q   22209.91667824 -.01390577  00000+0 -22005-1 0  9999
2 53057  97.6555  29.0875 0001783  74.3053 194.8141 15.56302886  3398
STARLINK-4317           
1 53058U 22077R   22209.91667824 -.01390375  00000+0 -22021-1 0  9994
2 53058  97.6555  29.0882 0001883  62.3794 204.5374 15.56278066  1305
STARLINK-4320           
1 53059U 22077S   22209.91667824 -.01390556  00000+0 -21991-1 0  9991
2 53059  97.6555  29.0863 0001801  70.6277 199.9597 15.56319371  1302
STARLINK-4305           
1 53060U 22077T   22209.91667824 -.01390540  00000+0 -22011-1 0  9990
2 53060  97.6555  29.0880 0001799  71.8802 196.5052 15.56294610  3394
STARLINK-4308           
1 53061U 22077U   22209.91667824 -.01390576  00000+0 -21978-1 0  9991
2 53061  97.6555  29.0860 0001780  73.3987 198.6564 15.56335895  3396
STARLINK-4311           
1 53062U 22077V   22209.91667824 -.01390564  00000+0 -21998-1 0  9991
2 53062  97.6555  29.0867 0001786  73.3177 196.5357 15.56311134  3398
STARLINK-4307           
1 53063U 22077W   22209.91667824 -.00727191  00000+0 -10102-1 0  9996
2 53063  97.6561  29.0968 0001501  88.4573 191.3123 15.59343796  3396
STARLINK-4313           
1 53064U 22077X   22209.91667824 -.01390539  00000+0 -21984-1 0  9990
2 53064  97.6555  29.0857 0001794  71.4305 199.8908 15.56327633  3399
STARLINK-4312           
1 53065U 22077Y   22209.91667824 -.01390595  00000+0 -21958-1 0  9994
2 53065  97.6555  29.0842 0001791  70.5832 203.6728 15.56360655  3391
STARLINK-4309           
1 53066U 22077Z   22209.91667824 -.01390952  00000+0 -21978-1 0  9994
2 53066  97.6555  29.0853 0001739  87.8801 184.9087 15.56344328  1300
STARLINK-4306           
1 53067U 22077AA  22209.91667824 -.01390800  00000+0 -21940-1 0  9996
2 53067  97.6555  29.0833 0001957  54.6285 221.8276 15.56385509  3397
STARLINK-4325           
1 53068U 22077AB  22209.91667824 -.01390641  00000+0 -21952-1 0  9993
2 53068  97.6555  29.0836 0001799  69.0958 205.8936 15.56368910  3394
STARLINK-4323           
1 53069U 22077AC  22209.91667824 -.01390786  00000+0 -21928-1 0  9997
2 53069  97.6555  29.0821 0001737  79.6186 198.3040 15.56401978  3395
STARLINK-4342           
1 53070U 22077AD  22209.91667824 -.01390654  00000+0 -21945-1 0  9992
2 53070  97.6555  29.0838 0001860  62.1740 213.5489 15.56377178  3396
STARLINK-4328           
1 53071U 22077AE  22209.91667824 -.01390705  00000+0 -21913-1 0  9995
2 53071  97.6555  29.0818 0001757  73.8381 205.5505 15.56418443  3391
STARLINK-4344           
1 53072U 22077AF  22209.91667824 -.01390679  00000+0 -21932-1 0  9997
2 53072  97.6555  29.0826 0001854  62.3529 214.8364 15.56393706  1305
STARLINK-4346           
1 53073U 22077AG  22209.91667824 -.01390763  00000+0 -21900-1 0  9997
2 53073  97.6555  29.0806 0001824  64.2061 216.6482 15.56434987  3392
STARLINK-4310           
1 53074U 22077AH  22209.91667824 -.01390826  00000+0 -21922-1 0  9992
2 53074  97.6555  29.0815 0001732  80.8637 197.7919 15.56410234  1306
STARLINK-4348           
1 53075U 22077AJ  22209.91667824 -.01390803  00000+0 -21888-1 0  9999
2 53075  97.6555  29.0795 0001727  79.2900 203.0297 15.56451479  3390
STARLINK-4347           
1 53076U 22077AK  22209.91667824 -.01390892  00000+0 -21908-1 0  9991
2 53076  97.6555  29.0811 0001944  54.7679 225.3535 15.56426826  1301
STARLINK-4315           
1 53077U 22077AL  22209.91667824 -.01390781  00000+0 -21874-1 0  9991
2 53077  97.6555  29.0792 0001750  72.9780 210.8068 15.56467974  3390
STARLINK-4322           
1 53078U 22077AM  22209.91667824 -.01390794  00000+0 -21894-1 0  9998
2 53078  97.6555  29.0799 0001801  66.6038 214.9833 15.56443229  3393
STARLINK-4327           
1 53079U 22077AN  22209.91667824 -.01391037  00000+0 -21872-1 0  9996
2 53079  97.6555  29.0786 0001707  88.3866 196.1307 15.56476305  3393
STARLINK-4330           
1 53080U 22077AP  22209.91667824 -.01391158  00000+0 -21885-1 0  9996
2 53080  97.6555  29.0796 0002022  49.7324 233.3197 15.56459965  3391
STARLINK-4326           
1 53081U 22077AQ  22209.91667824 -.01391123  00000+0 -21860-1 0  9992
2 53081  97.6555  29.0775 0001708  93.3386 192.6432 15.56492866  3398
STARLINK-4321           
1 53082U 22077AR  22209.91667824 -.01390815  00000+0 -21861-1 0  9991
2 53082  97.6555  29.0778 0001767  69.5780 215.6715 15.56484501  3397
STARLINK-4251           
1 53083U 22077AS  22210.00001157 -.00033310  00000+0 -55917-3 0  9999
2 53083  97.6556  29.1764 0001653  61.4485 262.8675 15.51795183  3409
STARLINK-4319           
1 53084U 22077AT  22209.91667824 -.01390872  00000+0 -21849-1 0  9992
2 53084  97.6555  29.0776 0001708  81.8657 204.8483 15.56500997  1301
STARLINK-4324           
1 53085U 22077AU  22209.91667824 -.01391176  00000+0 -21845-1 0  9997
2 53085  97.6555  29.0768 0001913  55.1332 233.5219 15.56510507  3390
STARLINK-4318           
1 53086U 22077AV  22209.91667824 -.01390866  00000+0 -21848-1 0  9996
2 53086  97.6555  29.0772 0001716  77.9525 209.9706 15.56502027  3399
STARLINK-4329           
1 53087U 22077AW  22209.91667824 -.01390980  00000+0 -21830-1 0  9995
2 53087  97.6555  29.0757 0001693  85.7726 204.3466 15.56526808  3392
STARLINK-4333           
1 53088U 22077AX  22209.91667824 -.01390911  00000+0 -21835-1 0  9995
2 53088  97.6555  29.0760 0001758  69.2597 220.1275 15.56518575  3398
